From: horizons@ssd.jpl.nasa.gov (Horizons Ephemeris System)
Subject: [Horizons] SMALL BODY #C(500@10)_T(Catalina (C/2018 W1)) (1/1)
Date: February 23, 2021 at 4:21:05 PM PST

Automated mail xmit by MAIL_REQUEST, PID= 22901 Tue Feb 23 16:21:05 2021
++++++++++++++++++++++++++++++++ (part 1 of 1)  +++++++++++++++++++++++++++++++
*******************************************************************************
JPL/HORIZONS                Catalina (C/2018 W1)           2021-Feb-23 16:21:04
Rec #:90004402 (+COV) Soln.date: 2020-Jun-02_00:45:12    # obs: 281 (2018-2020)

IAU76/J2000 helio. ecliptic osc. elements (au, days, deg., period=Julian yrs):

 EPOCH=  2458510.5 ! 2019-Jan-27.0000000 (TDB)    RMSW= n.a.
  EC= .937662754552529    QR= 1.360177195447402   TP= 2458615.3529378418
  OM= 233.5895763829199   W= 251.2480607502961    IN= 83.27888375067246
  A= 21.81965509838844    MA= 358.9860586021736   ADIST= 42.27913300132948
  PER= 101.924839564272   N= .009670128           ANGMOM= .027926614
  DAN= 3.77281            DDN= 2.02513            L= 72.61074600000001
  B= -70.12080419999999   MOID= .804829           TP= 2019-May-11.8529378418

Comet physical (GM= km^3/s^2; RAD= km):
  GM= n.a.                RAD= n.a.
  M1=  14.      M2=  15.8     k1=  10.    k2=  5.      PHCOF=  .030

COMET comments 
1: soln ref.= JPL#10, data arc: 2018-11-16 to 2020-05-21
2: k1=10., k2=5., phase coef.=0.03;
*******************************************************************************


*******************************************************************************
Ephemeris / MAIL_REQUEST Tue Feb 23 16:21:05 2021 Pasadena, USA  / Horizons
*******************************************************************************
Target body name: Catalina (C/2018 W1)            {source: JPL#10}
Center body name: Sun (10)                        {source: DE431}
Center-site name: BODY CENTER
*******************************************************************************
Start time      : A.D. 1990-Jan-01 00:00:00.0000 TDB
Stop  time      : A.D. 2020-Dec-31 00:00:00.0000 TDB
Step-size       : 10080 minutes
*******************************************************************************
Center geodetic : 0.00000000,0.00000000,0.0000000 {E-lon(deg),Lat(deg),Alt(km)}
Center cylindric: 0.00000000,0.00000000,0.0000000 {E-lon(deg),Dxy(km),Dz(km)}
Center radii    : 696000.0 x 696000.0 x 696000.0 k{Equator, meridian, pole}    
Small perturbers: Yes                             {source: SB431-N16}
Output units    : AU-D
Output type     : GEOMETRIC cartesian states
Output format   : 6 (LT, range, and range-rate)
Reference frame : Ecliptic of J2000.0
*******************************************************************************
Initial IAU76/J2000 heliocentric ecliptic osculating elements (au, days, deg.):
 EPOCH=  2458510.5 ! 2019-Jan-27.0000000 (TDB)    RMSW= n.a.                  
  EC= .937662754552529    QR= 1.360177195447402   TP= 2458615.3529378418      
  OM= 233.5895763829199   W= 251.2480607502961    IN= 83.27888375067246       
 Equivalent ICRF heliocentric equatorial cartesian coordinates (au, au/d):
  X= 1.167143446085398E+00  Y= 1.491531460650084E+00  Z= 5.721545680006686E-01
 VX=-7.101431169718302E-03 VY=-8.952847270164216E-04 VZ=-1.530824374214833E-02
Comet physical (GM= km^3/s^2; RAD= km):                                        
  GM= n.a.                RAD= n.a.                                           
  M1=  14.      M2=  15.8     k1=  10.    k2=  5.      PHCOF=  .030           
*******************************************************************************
           JDTDB,            Calendar Date (TDB),                     LT,                     RG,                     RR,
**************************************************************************************************************************
$$SOE
2451392.500000000, A.D. 1999-Aug-02 00:00:00.0000,  1.804726913810284E-01,  3.124787785689970E+01, -2.133412052189104E-03,
2451399.500000000, A.D. 1999-Aug-09 00:00:00.0000,  1.803864012496647E-01,  3.123293718380132E+01, -2.135351906453653E-03,
2451406.500000000, A.D. 1999-Aug-16 00:00:00.0000,  1.803000326670136E-01,  3.121798292728361E+01, -2.137293017059924E-03,
2451413.500000000, A.D. 1999-Aug-23 00:00:00.0000,  1.802135855828694E-01,  3.120301507865371E+01, -2.139235382345217E-03,
2451420.500000000, A.D. 1999-Aug-30 00:00:00.0000,  1.801270599433859E-01,  3.118803362858843E+01, -2.141179177494919E-03,
2451427.500000000, A.D. 1999-Sep-06 00:00:00.0000,  1.800404556876309E-01,  3.117303856653771E+01, -2.143124520481491E-03,
2451434.500000000, A.D. 1999-Sep-13 00:00:00.0000,  1.799537727541819E-01,  3.115802988186655E+01, -2.145071336354029E-03,
2451441.500000000, A.D. 1999-Sep-20 00:00:00.0000,  1.798670110854164E-01,  3.114300756459794E+01, -2.147019539044667E-03,
2451448.500000000, A.D. 1999-Sep-27 00:00:00.0000,  1.797801706260073E-01,  3.112797160515229E+01, -2.148969100526579E-03,
2451455.500000000, A.D. 1999-Oct-04 00:00:00.0000,  1.796932513208993E-01,  3.111292199399708E+01, -2.150920031265986E-03,
2451462.500000000, A.D. 1999-Oct-11 00:00:00.0000,  1.796062531141747E-01,  3.109785872145043E+01, -2.152872361218818E-03,
2451469.500000000, A.D. 1999-Oct-18 00:00:00.0000,  1.795191759484930E-01,  3.108278177758414E+01, -2.154826129449248E-03,
2451476.500000000, A.D. 1999-Oct-25 00:00:00.0000,  1.794320197648816E-01,  3.106769115218746E+01, -2.156781376286846E-03,
2451483.500000000, A.D. 1999-Nov-01 00:00:00.0000,  1.793447845028611E-01,  3.105258683478868E+01, -2.158738134320090E-03,
2451490.500000000, A.D. 1999-Nov-08 00:00:00.0000,  1.792574701009202E-01,  3.103746881473745E+01, -2.160696422253775E-03,
2451497.500000000, A.D. 1999-Nov-15 00:00:00.0000,  1.791700764966761E-01,  3.102233708123252E+01, -2.162656276935153E-03,
2451504.500000000, A.D. 1999-Nov-22 00:00:00.0000,  1.790826036239698E-01,  3.100719162281883E+01, -2.164617869349098E-03,
2451511.500000000, A.D. 1999-Nov-29 00:00:00.0000,  1.789950514068991E-01,  3.099203242635431E+01, -2.166581470274235E-03,
2451518.500000000, A.D. 1999-Dec-06 00:00:00.0000,  1.789074197616890E-01,  3.097685947733377E+01, -2.168547167233368E-03,
2451525.500000000, A.D. 1999-Dec-13 00:00:00.0000,  1.788197086044899E-01,  3.096167276123910E+01, -2.170514911573962E-03,
2451532.500000000, A.D. 1999-Dec-20 00:00:00.0000,  1.787319178532625E-01,  3.094647226386564E+01, -2.172484673864244E-03,
2451539.500000000, A.D. 1999-Dec-27 00:00:00.0000,  1.786440474264624E-01,  3.093125797109441E+01, -2.174456455168442E-03,
2451546.500000000, A.D. 2000-Jan-03 00:00:00.0000,  1.785560972422879E-01,  3.091602986876188E+01, -2.176430263988414E-03,
2451553.500000000, A.D. 2000-Jan-10 00:00:00.0000,  1.784680672186861E-01,  3.090078794266103E+01, -2.178406102748779E-03,
2451560.500000000, A.D. 2000-Jan-17 00:00:00.0000,  1.783799572737487E-01,  3.088553217860989E+01, -2.180383960970503E-03,
2451567.500000000, A.D. 2000-Jan-24 00:00:00.0000,  1.782917673263439E-01,  3.087026256256095E+01, -2.182363809716084E-03,
2451574.500000000, A.D. 2000-Jan-31 00:00:00.0000,  1.782034972969874E-01,  3.085497908075187E+01, -2.184345595623019E-03,
2451581.500000000, A.D. 2000-Feb-07 00:00:00.0000,  1.781151471088015E-01,  3.083968171987171E+01, -2.186329247304664E-03,
2451588.500000000, A.D. 2000-Feb-14 00:00:00.0000,  1.780267166871244E-01,  3.082437046699321E+01, -2.188314747227951E-03,
2451595.500000000, A.D. 2000-Feb-21 00:00:00.0000,  1.779382059548693E-01,  3.080904530876917E+01, -2.190302235737399E-03,
2451602.500000000, A.D. 2000-Feb-28 00:00:00.0000,  1.778496148286431E-01,  3.079370623076054E+01, -2.192291829034868E-03,
2451609.500000000, A.D. 2000-Mar-06 00:00:00.0000,  1.777609432246062E-01,  3.077835321845094E+01, -2.194283441247838E-03,
2451616.500000000, A.D. 2000-Mar-13 00:00:00.0000,  1.776721910638190E-01,  3.076298625817240E+01, -2.196276945653284E-03,
2451623.500000000, A.D. 2000-Mar-20 00:00:00.0000,  1.775833582715494E-01,  3.074760533698544E+01, -2.198272262426311E-03,
2451630.500000000, A.D. 2000-Mar-27 00:00:00.0000,  1.774944447755376E-01,  3.073221044237870E+01, -2.200269345290356E-03,
2451637.500000000, A.D. 2000-Apr-03 00:00:00.0000,  1.774054505050329E-01,  3.071680156210204E+01, -2.202268163812489E-03,
2451644.500000000, A.D. 2000-Apr-10 00:00:00.0000,  1.773163753903510E-01,  3.070137868409003E+01, -2.204268694662358E-03,
2451651.500000000, A.D. 2000-Apr-17 00:00:00.0000,  1.772272193626990E-01,  3.068594179643153E+01, -2.206270916184481E-03,
2451658.500000000, A.D. 2000-Apr-24 00:00:00.0000,  1.771379823542262E-01,  3.067049088737857E+01, -2.208274802275095E-03,
2451665.500000000, A.D. 2000-May-01 00:00:00.0000,  1.770486642983246E-01,  3.065502594539830E+01, -2.210280317607444E-03,
2451672.500000000, A.D. 2000-May-08 00:00:00.0000,  1.769592651297125E-01,  3.063954695918758E+01, -2.212287441691287E-03,
2451679.500000000, A.D. 2000-May-15 00:00:00.0000,  1.768697847819646E-01,  3.062405391724521E+01, -2.214296273646826E-03,
2451686.500000000, A.D. 2000-May-22 00:00:00.0000,  1.767802231814417E-01,  3.060854680682095E+01, -2.216307042636733E-03,
2451693.500000000, A.D. 2000-May-29 00:00:00.0000,  1.766905802471976E-01,  3.059302561389942E+01, -2.218319841706972E-03,
2451700.500000000, A.D. 2000-Jun-05 00:00:00.0000,  1.766008558979966E-01,  3.057749032441507E+01, -2.220334623126637E-03,
2451707.500000000, A.D. 2000-Jun-12 00:00:00.0000,  1.765110500544299E-01,  3.056194092461871E+01, -2.222351359030135E-03,
2451714.500000000, A.D. 2000-Jun-19 00:00:00.0000,  1.764211626372830E-01,  3.054637740079478E+01, -2.224370064332373E-03,
2451721.500000000, A.D. 2000-Jun-26 00:00:00.0000,  1.763311935662737E-01,  3.053079973904284E+01, -2.226390773384556E-03,
2451728.500000000, A.D. 2000-Jul-03 00:00:00.0000,  1.762411427596247E-01,  3.051520792520358E+01, -2.228413523865698E-03,
2451735.500000000, A.D. 2000-Jul-10 00:00:00.0000,  1.761510101341315E-01,  3.049960194487058E+01, -2.230438347370653E-03,
